NUSAT-1 (FRESCO)        
1 41557U 16033B   22175.81808821  .00011696  00000+0  34753-3 0  9995
2 41557  97.3879 273.5266 0010247 359.5940 116.6262 15.34873050338517
BEESAT-4                
1 41619U 16040W   22175.69603680  .00009376  00000+0  31179-3 0  9995
2 41619  97.2165 226.1319 0011265  93.7935 266.4595 15.31319412321832
CAS-2T & KS-1Q          
1 41847U 16066G   22175.78522672  .00000760  00000+0  12387-3 0  9995
2 41847  98.5507 240.4495 0363719 187.7705 171.7754 14.38595214295406
NAYIF-1 (EO-88)         
1 42017U 17008BX  22175.86682782  .00011560  00000+0  34410-3 0  9991
2 42017  97.2689 241.8734 0004726 197.1747 162.9338 15.34856059298211
ZHUHAI-1 02 (CAS-4B)    
1 42759U 17034B   22175.78553861  .00004210  00000+0  25365-3 0  9992
2 42759  43.0180 292.2861 0010023 329.0979 161.0930 15.11973667277462
ZHUHAI-1 01 (CAS-4A)    
1 42761U 17034D   22175.82288345  .00003627  00000+0  21981-3 0  9993
2 42761  43.0179 290.8634 0010158 331.1136 170.1107 15.12058240277473
MAX VALIER SAT          
1 42778U 17036P   22175.85914209  .00006130  00000+0  23290-3 0  9998
2 42778  97.2048 216.7057 0008863 304.7513  55.2891 15.27120865278033
RADFXSAT (FOX-1B)       
1 43017U 17073E   22175.66680394  .00002264  00000+0  17356-3 0  9990
2 43017  97.6751  69.5662 0248907 163.8960 197.0352 14.81431193248184
FOX-1D (AO-92)          
1 43137U 18004AC  22175.75016203  .00006668  00000+0  23546-3 0  9990
2 43137  97.3688 250.8407 0006722 348.1329  11.9752 15.29527982247462
DIWATA-2B               
1 43678U 18084H   22175.82579270  .00000827  00000+0  86952-4 0  9996
2 43678  97.9716 309.1775 0008407 259.7659 100.2592 14.92185310198958
ES'HAIL 2               
1 43700U 18090A   22175.80257730  .00000149  00000+0  00000+0 0  9993
2 43700   0.0120  54.1853 0001063  62.7639 110.6880  1.00273387 13108
FOX-1CLIFF (AO-95)      
1 43770U 18099N   22175.74499314  .00001933  00000+0  17506-3 0  9993
2 43770  97.6213 241.9058 0012421 248.1066 111.8835 14.96474426194106
ITASAT 1                
1 43786U 18099AE  22175.73757895  .00002158  00000+0  19414-3 0  9990
2 43786  97.6235 242.8210 0013327 240.0089 119.9810 14.96612536194141
JY1SAT (JO-97)          
1 43803U 18099AX  22175.75292986  .00001499  00000+0  13470-3 0  9990
2 43803  97.6203 242.5936 0013102 239.5186 120.4743 14.97118152194160
UWE-4                   
1 43880U 18111E   22175.68064943  .00002373  00000+0  20472-3 0  9994
2 43880  97.6677  81.8648 0010034 300.1890  59.8338 14.98193538190783
NEXUS (FO-99)           
1 43937U 19003F   22175.81750786  .00008623  00000+0  28941-3 0  9993
2 43937  97.1299 208.8817 0022428 125.3822 234.9519 15.30854355191104
PSAT2 (NO-104)          
1 44354U 19036R   22175.20497630  .00070123 -48939-5  61700-3 0  9996
2 44354  28.5231 131.5263 0226980  46.7650 315.1664 15.40694359165722
JAISAT-1                
1 44419U 19038F   22175.88873210  .00005088  00000+0  25643-3 0  9990
2 44419  97.6351 146.0712 0021324 104.5628 255.7972 15.17424005164180
DUCHIFAT-3              
1 44854U 19089C   22175.82349443  .00003452  00000+0  27022-3 0  9995
2 44854  36.9662  56.6509 0009694 284.7215  75.2409 15.01129002139042
CAS-6 (TO-108)          
1 44881U 19093C   22175.87179223  .00000589  00000+0  81281-4 0  9998
2 44881  97.8925 254.9741 0015520 157.1643 203.0251 14.81737584135874
RS-44 & BREEZE-KM R/B   
1 44909U 19096E   22175.53979167  .00000019  00000+0  37136-4 0  9998
2 44909  82.5211 225.5678 0216348 303.3503  54.7053 12.79713566116417
ORBITAL FACTORY 2 (OF-2)
1 45113U 19071C   22175.86843073  .00018494  00000+0  38282-3 0  9999
2 45113  51.6392  22.8754 0009996 195.1966 164.8722 15.45773755134524
HUSKYSAT-1 (HO-107)     
1 45119U 19071J   22175.87869160  .00015375  00000+0  33045-3 0  9998
2 45119  51.6396  22.9177 0009766 191.2743 168.8026 15.44816117134518
BY70-2                  
1 45857U 20042B   22175.93165233  .00006894  00000+0  91854-3 0  9992
2 45857  97.9543 252.6995 0012414  95.6987 264.5583 14.79906557106566
SALSAT                  
1 46495U 20068K   22175.81150917  .00000988  00000+0  74841-4 0  9995
2 46495  97.7296 117.1142 0014753 251.2874 108.6751 15.04540880 95294
BY70-3                  
1 46839U 20079N   22175.90808894  .00022257  00000+0  51761-3 0  9991
2 46839  97.1977 247.9048 0003939 309.0257 168.9931 15.42322135 91393
RADFXSAT-2 (AO-109)     
1 47311U 21002C   22175.81005836  .00005134  00000+0  21177-3 0  9992
2 47311  60.6860 334.5516 0017490 341.9566  18.0899 15.25406701 79581
UVSQ-SAT                
1 47438U 21006AB  22175.73995836  .00003497  00000+0  18654-3 0  9991
2 47438  97.4370 234.6005 0010408 245.1763 114.8388 15.15772298 78385
DIY-1 (ARDUIQUBE)       
1 47963U 21022AH  22175.48624771  .00010442  00000+0  58123-3 0  9994
2 47963  97.5321  76.7640 0019082 105.7805 254.5532 15.13672552 68012
XW-3 (CAS-9)            
1 50466U 21131B   22175.89292702  .00000085  00000+0  42489-4 0  9998
2 50466  98.5805 253.1434 0005836 121.7533 238.4223 14.38503196 25982
TEVEL-3                 
1 50988U 22002E   22175.77498218  .00007048  00000+0  38564-3 0  9996
2 50988  97.4813 242.6348 0010470  47.5882  91.1914 15.14514091 24528
TEVEL-8                 
1 50989U 22002F   22175.83800098  .00007121  00000+0  39014-3 0  9990
2 50989  97.4824 242.7148 0010512  46.8454  46.1088 15.14463834 24535
TEVEL-5                 
1 50998U 22002Q   22175.79356507  .00007337  00000+0  39577-3 0  9999
2 50998  97.4803 242.7470 0012076  42.3713  96.8653 15.14991540 24536
TEVEL-6                 
1 50999U 22002R   22175.79332049  .00007349  00000+0  39641-3 0  9990
2 50999  97.4801 242.7454 0011972  42.0138  97.8646 15.14995996 24531
TEVEL-1                 
1 51013U 22002AF  22175.77838045  .00007025  00000+0  38469-3 0  9991
2 51013  97.4805 242.6224 0010343  47.0479  97.6296 15.14490183 24527
TEVEL-7                 
1 51062U 22002CG  22175.83924796  .00007110  00000+0  38966-3 0  9998
2 51062  97.4821 242.7066 0010548  46.1874  46.2332 15.14453651 24531
TEVEL-4                 
1 51063U 22002CH  22175.78207400  .00007122  00000+0  39043-3 0  9999
2 51063  97.4822 242.6481 0010498  46.4395  91.7248 15.14445211 24521
TEVEL-2                 
1 51069U 22002CP  22175.77613602  .00007014  00000+0  38388-3 0  9990
2 51069  97.4799 242.6247 0010391  47.6009  91.8167 15.14506272 24523
CUTE-1 (CO-55)          
1 27844U 03031E   22175.60127980  .00000186  00000+0  10277-3 0  9996
2 27844  98.6777 183.1796 0011156  82.5450 277.6995 14.22457885984882
CUBESAT XI-IV (CO-57)   
1 27848U 03031J   22175.77757842  .00000151  00000+0  88063-4 0  9995
2 27848  98.6822 183.8714 0011024  94.6193 265.6244 14.22014254984722
CUBESAT XI-V            
1 28895U 05043F   22175.35186499  .00000727  00000+0  14634-3 0  9992
2 28895  98.1075 306.6239 0017897 118.0808 242.2207 14.64358128888422
CUTE-1.7+APD II (CO-65) 
1 32785U 08021C   22175.81939885  .00001276  00000+0  13908-3 0  9993
2 32785  97.6573 146.4344 0011835 202.8409 157.2284 14.89615152767587
AAUSAT-II               
1 32788U 08021F   22175.52037248  .00003133  00000+0  27282-3 0  9990
2 32788  97.5339 160.5846 0013461  96.8566 263.4188 14.97542716769494
DELFI-C3 (DO-64)        
1 32789U 08021G   22175.62123203  .00008610  00000+0  47766-3 0  9993
2 32789  97.3383 201.6603 0008290 303.5826  56.4614 15.13965064773012
SEEDS II (CO-66)        
1 32791U 08021J   22175.68274455  .00002366  00000+0  23430-3 0  9992
2 32791  97.6110 151.7880 0013265 158.2374 201.9411 14.92703298768278
SWISSCUBE               
1 35932U 09051B   22175.86236140  .00000456  00000+0  11270-3 0  9992
2 35932  98.5682  32.0069 0008259  32.9219 327.2491 14.56874251677216
BEESAT-1                
1 35933U 09051C   22175.81734638  .00000392  00000+0  98185-4 0  9993
2 35933  98.5623  33.5854 0006670  46.1666 314.0082 14.56889169677245
ITUPSAT1                
1 35935U 09051E   22175.83928074  .00000351  00000+0  90737-4 0  9996
2 35935  98.5725  33.6620 0008998  46.6697 313.5248 14.55997409676980
TISAT 1                 
1 36799U 10035E   22175.82511562  .00001301  00000+0  13123-3 0  9997
2 36799  98.1825  26.5604 0013222  73.5906 286.6764 14.92927061649067
M-CUBED & EXP-1 PRIME   
1 37855U 11061F   22175.84733629  .00005882  00000+0  26041-3 0  9994
2 37855 101.7095 298.8343 0152717  40.2670 320.9739 15.12526109582350
AEROCUBE 4.5A           
1 38767U 12048K   22175.87698972  .00001964  00000+0  14562-3 0  9999
2 38767  64.6659  87.5321 0175865 260.5406  97.5792 14.94893689151894
AEROCUBE 4.5B           
1 38768U 12048L   22175.80245258  .00002712  00000+0  17869-3 0  9993
2 38768  64.6674  42.1603 0163072 255.9304 102.3639 14.99623623152254
STRAND-1                
1 39090U 13009E   22175.54917993  .00000126  00000+0  58790-4 0  9999
2 39090  98.4043  13.5007 0007862 247.7768 112.2584 14.35296062488417
BRITE-AUSTRIA           
1 39091U 13009F   22175.81286593  .00000101  00000+0  50283-4 0  9997
2 39091  98.4058  12.9269 0009272 254.7751 105.2410 14.35277577488481
SOMP                    
1 39134U 13015E   22175.89085049  .00008804  00000+0  31589-3 0  9998
2 39134  64.8629  37.4805 0034901 278.5718  81.1460 15.28697156507999
BEESAT-3                
1 39135U 13015F   22175.80714704  .00006630  00000+0  27539-3 0  9992
2 39135  64.8669  73.9773 0037957 285.3072  74.3864 15.24010789507232
BEESAT-2                
1 39136U 13015G   22175.85997824  .00006508  00000+0  28273-3 0  9994
2 39136  64.8755  81.9994 0016606 296.5202  63.4224 15.23025454507042
NEE-01 PEGASO           
1 39151U 13018B   22175.53836603  .00000928  00000+0  12671-3 0  9991
2 39151  97.9919 281.1763 0015806 228.9382 131.0466 14.80953950494739
ESTCUBE 1               
1 39161U 13021C   22175.75938501  .00001050  00000+0  17115-3 0  9995
2 39161  97.9088 252.8063 0010383  44.8968 315.3078 14.72967480490540
